NORAD_CAT_ID,OBJECT_NAME,OBJECT_TYPE,EPOCH,MEAN_MOTION,ECCENTRICITY,INCLINATION,RA_OF_ASC_NODE,ARG_OF_PERICENTER,MEAN_ANOMALY,BSTAR,MEAN_MOTION_DOT,MEAN_MOTION_DDOT,TLE_LINE0,TLE_LINE1,TLE_LINE2,SEMIMAJOR_AXIS,PERIOD,APOGEE,PERIGEE,DECAYED
51131.0,STARLINK-3388,PAYLOAD,2022-03-18 14:00:01,15.57894397,0.0001295,53.2174,345.2617,44.4049,353.659,-0.010219,-0.00711551,0.0,0 STARLINK-3388,1 51131U 22005AD  22077.58334491 -.00711551  00000-0 -10219-1 0  9991,2 51131  53.2174 345.2617 0001295  44.4049 353.6590 15.57894397  3715,6771.889,92.432,394.631,392.877,0.0
51131.0,STARLINK-3388,PAYLOAD,2022-03-18 22:00:00,15.57385726,0.0001501,53.2174,343.6496,43.8239,64.4678,-0.010448,-0.00713515,0.0,0 STARLINK-3388,1 51131U 22005AD  22077.91667824 -.00713515  00000-0 -10448-1 0  9993,2 51131  53.2174 343.6496 0001501  43.8239  64.4678 15.57385726  3766,6773.363,92.463,396.245,394.212,0.0
51131.0,STARLINK-3388,PAYLOAD,2022-03-19 02:00:01,15.57132631,0.0001431,53.2174,342.8442,48.027,275.213,-0.010599,-0.00716661,0.0,0 STARLINK-3388,1 51131U 22005AD  22078.08335648 -.00716661  00000-0 -10599-1 0  9990,2 51131  53.2174 342.8442 0001431  48.0270 275.2130 15.57132631 10603,6774.097,92.478,396.932,394.99300000000005,0.0
51131.0,STARLINK-3388,PAYLOAD,2022-03-19 14:00:01,15.563648,0.0001366,53.2173,340.4253,55.8445,191.0677,-0.010817,-0.00711121,0.0,0 STARLINK-3388,1 51131U 22005AD  22078.58334491 -.00711121  00000-0 -10817-1 0  9999,2 51131  53.2173 340.4253 0001366  55.8445 191.0677 15.56364800  3699,6776.325,92.523,399.116,397.265,0.0
51131.0,STARLINK-3388,PAYLOAD,2022-03-19 22:00:01,15.55856269,0.0001355,53.2174,338.81699999999995,53.6036,261.7629,-0.011068,-0.00713705,0.0,0 STARLINK-3388,1 51131U 22005AD  22078.91668981 -.00713705  00000-0 -11068-1 0  9999,2 51131  53.2174 338.8170 0001355  53.6036 261.7629 15.55856269  3729,6777.802,92.554,400.585,398.74800000000016,0.0
51131.0,STARLINK-3388,PAYLOAD,2022-03-20 06:00:00,15.55346592,0.0001125,53.2173,337.2092,59.5752,323.5035,-0.011269,-0.00713042,0.0,0 STARLINK-3388,1 51131U 22005AD  22079.25001157 -.00713042  00000-0 -11269-1 0  9990,2 51131  53.2173 337.2092 0001125  59.5752 323.5035 15.55346592 10784,6779.281999999997,92.584,401.91,400.385,0.0
51131.0,STARLINK-3388,PAYLOAD,2022-03-20 14:00:01,15.54835608,0.0001438,53.2174,335.6001,43.1042,47.1415,-0.011481,-0.00712912,0.0,0 STARLINK-3388,1 51131U 22005AD  22079.58334491 -.00712912  00000-0 -11481-1 0  9997,2 51131  53.2174 335.6001 0001438  43.1042  47.1415 15.54835608  3687,6780.768,92.614,403.608,401.657,0.0
51131.0,STARLINK-3388,PAYLOAD,2022-03-20 22:00:01,15.54324569,0.000172,53.2174,333.9955,39.8534,117.0089,-0.011663,-0.00710926,0.0,0 STARLINK-3388,1 51131U 22005AD  22079.91668981 -.00710926  00000-0 -11663-1 0  9993,2 51131  53.2174 333.9955 0001720  39.8534 117.0089 15.54324569  3715,6782.254,92.645,405.285,402.952,0.0
51131.0,STARLINK-3388,PAYLOAD,2022-03-21 06:00:00,15.53817591,0.0001382,53.2171,332.3909,61.2148,161.5209,-0.011967,-0.00715507,0.0,0 STARLINK-3388,1 51131U 22005AD  22080.25001157 -.00715507  00000-0 -11967-1 0  9995,2 51131  53.2171 332.3909 0001382  61.2148 161.5209 15.53817591 10940,6783.729,92.675,406.531,404.656,0.0
51131.0,STARLINK-3388,PAYLOAD,2022-03-21 14:00:01,15.53304709,0.0001381,53.2173,330.7857,51.1825,236.882,-0.012105,-0.00710733,0.0,0 STARLINK-3388,1 51131U 22005AD  22080.58334491 -.00710733  00000-0 -12105-1 0  9992,2 51131  53.2173 330.7857 0001381  51.1825 236.8820 15.53304709  3696,6785.222,92.706,408.024,406.15,0.0
51131.0,STARLINK-3388,PAYLOAD,2022-03-21 22:00:00,15.5279669,0.0001531999999999,53.2174,329.185,39.796,312.9807,-0.012385,-0.00713595,0.0,0 STARLINK-3388,1 51131U 22005AD  22080.91667824 -.00713595  00000-0 -12385-1 0  9997,2 51131  53.2174 329.1850 0001532  39.7960 312.9807 15.52796690  3696,6786.7019999999975,92.736,409.607,407.527,0.0
51131.0,STARLINK-3388,PAYLOAD,2022-03-22 12:00:00,15.51901965,0.0001296999999999,53.2173,326.3826,45.9884,328.5648,-0.012724,-0.00710003,0.0,0 STARLINK-3388,1 51131U 22005AD  22081.50001157 -.00710003  00000-0 -12724-1 0  9992,2 51131  53.2173 326.3826 0001297  45.9884 328.5648 15.51901965 11135,6789.31,92.789,412.056,410.295,0.0
51131.0,STARLINK-3388,PAYLOAD,2022-03-22 14:00:01,15.51776601,0.0001469,53.2172,325.9826,45.8231,74.5442,-0.01286,-0.00714013,0.0,0 STARLINK-3388,1 51131U 22005AD  22081.58334491 -.00714013  00000-0 -12860-1 0  9996,2 51131  53.2172 325.9826 0001469  45.8231  74.5442 15.51776601  3728,6789.676,92.797,412.538,410.543,0.0
51131.0,STARLINK-3388,PAYLOAD,2022-03-22 22:00:01,15.51264687,0.0001776,53.2171,324.3855,40.3464,142.9608,-0.013027,-0.00710449,0.0,0 STARLINK-3388,1 51131U 22005AD  22081.91668981 -.00710449  00000-0 -13027-1 0  9992,2 51131  53.2171 324.3855 0001776  40.3464 142.9608 15.51264687  3709,6791.17,92.827,414.241,411.828,0.0
51131.0,STARLINK-3388,PAYLOAD,2022-03-23 14:00:01,15.50244621,0.0001313,53.2173,321.1903,55.3011,251.8551,-0.013503,-0.00719009,0.0,0 STARLINK-3388,1 51131U 22005AD  22082.58334491 -.00719009  00000-0 -13503-1 0  9992,2 51131  53.2173 321.1903 0001313  55.3011 251.8551 15.50244621 11308,6794.148,92.889,416.905,415.121,0.0
51131.0,STARLINK-3388,PAYLOAD,2022-03-23 22:00:00,15.49738191,0.0001534,53.2174,319.5975,40.4567,327.7342,-0.013884,-0.00725602,0.0,0 STARLINK-3388,1 51131U 22005AD  22082.91667824 -.00725602  00000-0 -13884-1 0  9996,2 51131  53.2174 319.5975 0001534  40.4567 327.7342 15.49738191  3710,6795.628000000002,92.919,418.536,416.451,0.0
51131.0,STARLINK-3388,PAYLOAD,2022-03-24 06:00:00,15.49077573,0.0001171,53.2173,318.0043,62.3696,6.2685,-0.0036159,-0.00195013,0.0,0 STARLINK-3388,1 51131U 22005AD  22083.25001157 -.00195013  00000-0 -36159-2 0  9993,2 51131  53.2173 318.0043 0001171  62.3696   6.2685 15.49077573 11406,6797.56,92.959,420.221,418.629,0.0
51131.0,STARLINK-3388,PAYLOAD,2022-03-24 14:00:01,15.48949744,0.0001466,53.2174,316.4116,49.9353,78.5589,-6.5724e-05,-4.054e-05,0.0,0 STARLINK-3388,1 51131U 22005AD  22083.58334491 -.00004054  00000-0 -65724-4 0  9995,2 51131  53.2174 316.4116 0001466  49.9353  78.5589 15.48949744  3681,6797.934,92.966,420.796,418.80300000000005,0.0
51131.0,STARLINK-3388,PAYLOAD,2022-03-24 22:00:00,15.48975631,0.000152,53.2156,314.83,44.937,143.4878,1.3759e-06,-3.71e-06,0.0,0 STARLINK-3388,1 51131U 22005AD  22083.91667824 -.00000371  00000-0  13759-5 0  9990,2 51131  53.2156 314.8300 0001520  44.9370 143.4878 15.48975631 11511,6797.858,92.965,420.757,418.69,0.0
51131.0,STARLINK-3388,PAYLOAD,2022-03-25 06:00:00,15.49077765,0.0001369,53.2151,313.2385,39.5754,208.7536,0.00019785,0.00010482,0.0,0 STARLINK-3388,1 51131U 22005AD  22084.25001157  .00010482  00000-0  19785-3 0  9995,2 51131  53.2151 313.2385 0001369  39.5754 208.7536 15.49077765 11562,6797.56,92.959,420.355,418.494,0.0
51131.0,STARLINK-3388,PAYLOAD,2022-03-25 14:00:01,15.49069929,0.0001262999999999,53.2153,311.6459,47.9045,260.363,0.00061227,0.00033463,0.0,0 STARLINK-3388,1 51131U 22005AD  22084.58334491  .00033463  00000-0  61227-3 0  9993,2 51131  53.2153 311.6459 0001263  47.9045 260.3630 15.49069929  3683,6797.583000000001,92.959,420.306,418.589,0.0
51131.0,STARLINK-3388,PAYLOAD,2022-03-25 20:00:01,15.48972715,0.0001437,53.2154,310.4547,43.6695,219.2682,-0.00094406,-0.00051988,0.0,0 STARLINK-3388,1 51131U 22005AD  22084.83334491 -.00051988  00000-0 -94406-3 0  9990,2 51131  53.2154 310.4547 0001437  43.6695 219.2682 15.48972715 11657,6797.8669999999975,92.965,420.709,418.755,0.0
51131.0,STARLINK-3388,PAYLOAD,2022-03-25 22:00:01,15.48959867,0.0001531999999999,53.2154,310.0573,43.6166,324.3387,-0.00067322,-0.00037254,0.0,0 STARLINK-3388,1 51131U 22005AD  22084.91668981 -.00037254  00000-0 -67322-3 0  9990,2 51131  53.2154 310.0573 0001532  43.6166 324.3387 15.48959867  3701,6797.905,92.966,420.811,418.728,0.0
51131.0,STARLINK-3388,PAYLOAD,2022-03-26 12:00:00,15.48915766,0.0001569,53.2155,307.2715,51.2398,331.2376,0.0012831,0.00070571,0.0,0 STARLINK-3388,1 51131U 22005AD  22085.50001157  .00070571  00000-0  12831-2 0  9993,2 51131  53.2155 307.2715 0001569  51.2398 331.2376 15.48915766 11759,6798.034000000002,92.968,420.965,418.832,0.0
51131.0,STARLINK-3388,PAYLOAD,2022-03-26 14:00:01,15.48966619,0.0001611,53.2157,306.8738,54.5298,72.8742,-0.00029681,-0.00016721,0.0,0 STARLINK-3388,1 51131U 22005AD  22085.58334491 -.00016721  00000-0 -29681-3 0  9992,2 51131  53.2157 306.8738 0001611  54.5298  72.8742 15.48966619  3663,6797.885,92.965,420.845,418.655,0.0
51131.0,STARLINK-3388,PAYLOAD,2022-03-26 20:00:01,15.48959359,0.0001728,53.2158,305.6823,47.6989,34.5584,-0.0010579,-0.00058133,0.0,0 STARLINK-3388,1 51131U 22005AD  22085.83334491 -.00058133  00000-0 -10579-2 0  9998,2 51131  53.2158 305.6823 0001728  47.6989  34.5584 15.48959359 11802,6797.906,92.966,420.946,418.596,0.0
51131.0,STARLINK-3388,PAYLOAD,2022-03-26 22:00:00,15.4895386,0.000177,53.2158,305.285,46.1084,141.0956,-0.0011706,-0.00064217,0.0,0 STARLINK-3388,1 51131U 22005AD  22085.91667824 -.00064217  00000-0 -11706-2 0  9999,2 51131  53.2158 305.2850 0001770  46.1084 141.0956 15.48953860  3691,6797.922,92.966,420.99,418.584,0.0
51131.0,STARLINK-3388,PAYLOAD,2022-03-27 14:00:01,15.48902264,0.000165,53.2161,302.1015,48.6492,258.065,0.0023831,0.00132445,0.0,0 STARLINK-3388,1 51131U 22005AD  22086.58334491  .00132445  00000-0  23831-2 0  9993,2 51131  53.2161 302.1015 0001650  48.6492 258.0650 15.48902264 11928,6798.073,92.969,421.06,418.816,0.0
51131.0,STARLINK-3388,PAYLOAD,2022-03-27 22:00:01,15.49044529,0.0002036,53.216,300.5123,46.964,319.7899,-0.0013177,-0.00072387,0.0,0 STARLINK-3388,1 51131U 22005AD  22086.91668981 -.00072387  00000-0 -13177-2 0  9996,2 51131  53.2160 300.5123 0002036  46.9640 319.7899 15.49044529 11971,6797.656999999997,92.961,420.906,418.138,0.0
